{"type": "FeatureCollection", "features": [ {"type": "Feature", "properties": {"norad_id": 54234, "name": "NOAA 21 (JPSS-2)", "group": "weather", "lat": -77.74108605064424, "lon": 57.3643758043181, "alt_km": 835.4704343334333, "timestamp": "2025-12-12T03:50:52.059487+00:00", "meta": {"OBJECT_NAME": "NOAA 21 (JPSS-2)", "OBJECT_ID": "2022-150A", "EPOCH": "2025-12-11T13:05:12.881472", "MEAN_MOTION": 14.19523801, "ECCENTRICITY": 0.00022595, "INCLINATION": 98.746, "RA_OF_ASC_NODE": 281.8684, "ARG_OF_PERICENTER": 40.3576, "MEAN_ANOMALY": 319.7768, "EPHEMERIS_TYPE": 0, "CLASSIFICATION_TYPE": "U", "NORAD_CAT_ID": 54234, "ELEMENT_SET_NO": 999, "REV_AT_EPOCH": 15992, "BSTAR": 0.00010671248, "MEAN_MOTION_DOT": 1.81e-06, "MEAN_MOTION_DDOT": 0}, "tle": {"line1": "1 54234U 22150A   25345.54528798  .00000181  00000+0  10671-3 0  9992", "line2": "2 54234  98.7460 281.8684 0002259  40.3576 319.7768 14.19523801159925"}}, "geometry": {"type": "Point", "coordinates": [57.3643758043181, -77.74108605064424]}}, {"type": "Feature", "properties": {"norad_id": 54743, "name": "METEOSAT-12 (MTG-I1)", "group": "weather", "lat": 0.6267263455289407, "lon": 138.55917087722156, "alt_km": 35790.75440843399, "timestamp": "2025-12-12T03:50:52.059499+00:00", "meta": {"OBJECT_NAME": "METEOSAT-12 (MTG-I1)", "OBJECT_ID": "2022-170C", "EPOCH": "2025-12-11T13:30:37.569312", "MEAN_MOTION": 1.0026869, "ECCENTRICITY": 0.00017924, "INCLINATION": 0.6856, "RA_OF_ASC_NODE": 23.4138, "ARG_OF_PERICENTER": 236.1938, "MEAN_ANOMALY": 23.3294, "EPHEMERIS_TYPE": 0, "CLASSIFICATION_TYPE": "U", "NORAD_CAT_ID": 54743, "ELEMENT_SET_NO": 999, "REV_AT_EPOCH": 1109, "BSTAR": 0, "MEAN_MOTION_DOT": 0, "MEAN_MOTION_DDOT": 0}, "tle": {"line1": "1 54743U 22170C   25345.56293483  .00000000  00000+0  00000+0 0  9992", "line2": "2 54743   0.6856  23.4138 0001792 236.1938  23.3294  1.00268690 11098"}}, "geometry": {"type": "Point", "coordinates": [138.55917087722156, 0.6267263455289407]}}, {"type": "Feature", "properties": {"norad_id": 55973, "name": "TIANMU-1 03", "group": "weather", "lat": -64.71346723814084, "lon": 165.01325087963357, "alt_km": 452.5958869205506, "timestamp": "2025-12-12T03:50:52.059534+00:00", "meta": {"OBJECT_NAME": "TIANMU-1 03", "OBJECT_ID": "2023-039A", "EPOCH": "2025-12-11T14:06:21.122208", "MEAN_MOTION": 15.40869434, "ECCENTRICITY": 0.00044323, "INCLINATION": 97.5109, "RA_OF_ASC_NODE": 148.207, "ARG_OF_PERICENTER": 64.628, "MEAN_ANOMALY": 295.5425, "EPHEMERIS_TYPE": 0, "CLASSIFICATION_TYPE": "U", "NORAD_CAT_ID": 55973, "ELEMENT_SET_NO": 999, "REV_AT_EPOCH": 15188, "BSTAR": 0.00048730337, "MEAN_MOTION_DOT": 0.00019953, "MEAN_MOTION_DDOT": 0}, "tle": {"line1": "1 55973U 23039A   25345.58774447  .00019953  00000+0  48730-3 0  9992", "line2": "2 55973  97.5109 148.2070 0004432  64.6280 295.5425 15.40869434151882"}}, "geometry": {"type": "Point", "coordinates": [165.01325087963357, -64.71346723814084]}}, {"type": "Feature", "properties": {"norad_id": 55974, "name": "TIANMU-1 04", "group": "weather", "lat": 46.951304212140045, "lon": 139.8741839695919, "alt_km": 434.985126875451, "timestamp": "2025-12-12T03:50:52.059549+00:00", "meta": {"OBJECT_NAME": "TIANMU-1 04", "OBJECT_ID": "2023-039B", "EPOCH": "2025-12-11T15:10:36.699744", "MEAN_MOTION": 15.4120655, "ECCENTRICITY": 0.00050999, "INCLINATION": 97.5041, "RA_OF_ASC_NODE": 147.4444, "ARG_OF_PERICENTER": 59.5511, "MEAN_ANOMALY": 300.6238, "EPHEMERIS_TYPE": 0, "CLASSIFICATION_TYPE": "U", "NORAD_CAT_ID": 55974, "ELEMENT_SET_NO": 999, "REV_AT_EPOCH": 15189, "BSTAR": 0.00049283855, "MEAN_MOTION_DOT": 0.0002041, "MEAN_MOTION_DDOT": 0}, "tle": {"line1": "1 55974U 23039B   25345.63236921  .00020410  00000+0  49284-3 0  9994", "line2": "2 55974  97.5041 147.4444 0005099  59.5511 300.6238 15.41206550151890"}}, "geometry": {"type": "Point", "coordinates": [139.8741839695919, 46.951304212140045]}}, {"type": "Feature", "properties": {"norad_id": 55975, "name": "TIANMU-1 05", "group": "weather", "lat": 77.70712343603131, "lon": 111.22722293084611, "alt_km": 433.3546096156888, "timestamp": "2025-12-12T03:50:52.059563+00:00", "meta": {"OBJECT_NAME": "TIANMU-1 05", "OBJECT_ID": "2023-039C", "EPOCH": "2025-12-11T15:01:56.004096", "MEAN_MOTION": 15.40828006, "ECCENTRICITY": 0.0004358, "INCLINATION": 97.5088, "RA_OF_ASC_NODE": 147.9306, "ARG_OF_PERICENTER": 81.3007, "MEAN_ANOMALY": 278.8732, "EPHEMERIS_TYPE": 0, "CLASSIFICATION_TYPE": "U", "NORAD_CAT_ID": 55975, "ELEMENT_SET_NO": 999, "REV_AT_EPOCH": 15187, "BSTAR": 0.0004939346, "MEAN_MOTION_DOT": 0.00020198, "MEAN_MOTION_DDOT": 0}, "tle": {"line1": "1 55975U 23039C   25345.62634264  .00020198  00000+0  49393-3 0  9990", "line2": "2 55975  97.5088 147.9306 0004358  81.3007 278.8732 15.40828006151872"}}, "geometry": {"type": "Point", "coordinates": [111.22722293084611, 77.70712343603131]}}, {"type": "Feature", "properties": {"norad_id": 55976, "name": "TIANMU-1 06", "group": "weather", "lat": 34.9295842961339, "lon": 143.6575345186499, "alt_km": 437.6337533457281, "timestamp": "2025-12-12T03:50:52.059575+00:00", "meta": {"OBJECT_NAME": "TIANMU-1 06", "OBJECT_ID": "2023-039D", "EPOCH": "2025-12-11T15:13:47.834688", "MEAN_MOTION": 15.41258605, "ECCENTRICITY": 0.00046723, "INCLINATION": 97.5098, "RA_OF_ASC_NODE": 148.4032, "ARG_OF_PERICENTER": 76.4243, "MEAN_ANOMALY": 283.7524, "EPHEMERIS_TYPE": 0, "CLASSIFICATION_TYPE": "U", "NORAD_CAT_ID": 55976, "ELEMENT_SET_NO": 999, "REV_AT_EPOCH": 15189, "BSTAR": 0.00048596609, "MEAN_MOTION_DOT": 0.00020157, "MEAN_MOTION_DDOT": 0}, "tle": {"line1": "1 55976U 23039D   25345.63458142  .00020157  00000+0  48597-3 0  9991", "line2": "2 55976  97.5098 148.4032 0004672  76.4243 283.7524 15.41258605151891"}}, "geometry": {"type": "Point", "coordinates": [143.6575345186499, 34.9295842961339]}}, {"type": "Feature", "properties": {"norad_id": 56232, "name": "FENGYUN 3G", "group": "weather", "lat": 49.611879060505736, "lon": -48.69929071336747, "alt_km": 396.2189664758025, "timestamp": "2025-12-12T03:50:52.059585+00:00", "meta": {"OBJECT_NAME": "FENGYUN 3G", "OBJECT_ID": "2023-055A", "EPOCH": "2025-12-11T04:19:56.451936", "MEAN_MOTION": 15.53495979, "ECCENTRICITY": 0.00092917, "INCLINATION": 49.9932, "RA_OF_ASC_NODE": 235.5005, "ARG_OF_PERICENTER": 141.2509, "MEAN_ANOMALY": 218.9126, "EPHEMERIS_TYPE": 0, "CLASSIFICATION_TYPE": "U", "NORAD_CAT_ID": 56232, "ELEMENT_SET_NO": 999, "REV_AT_EPOCH": 15078, "BSTAR": 0.00075652798, "MEAN_MOTION_DOT": 0.0004892, "MEAN_MOTION_DDOT": 0}, "tle": {"line1": "1 56232U 23055A   25345.18051449  .00048920  00000+0  75653-3 0  9995", "line2": "2 56232  49.9932 235.5005 0009291 141.2509 218.9126 15.53495979150786"}}, "geometry": {"type": "Point", "coordinates": [-48.69929071336747, 49.611879060505736]}}, {"type": "Feature", "properties": {"norad_id": 57166, "name": "METEOR-M2 3", "group": "weather", "lat": 21.035749679003704, "lon": -136.9388946426282, "alt_km": 814.0353341127675, "timestamp": "2025-12-12T03:50:52.059596+00:00", "meta": {"OBJECT_NAME": "METEOR-M2 3", "OBJECT_ID": "2023-091A", "EPOCH": "2025-12-11T15:18:04.802112", "MEAN_MOTION": 14.2402593, "ECCENTRICITY": 0.00039689, "INCLINATION": 98.6379, "RA_OF_ASC_NODE": 39.1961, "ARG_OF_PERICENTER": 11.9921, "MEAN_ANOMALY": 348.1352, "EPHEMERIS_TYPE": 0, "CLASSIFICATION_TYPE": "U", "NORAD_CAT_ID": 57166, "ELEMENT_SET_NO": 999, "REV_AT_EPOCH": 12782, "BSTAR": 3.3105404e-05, "MEAN_MOTION_DOT": 3.3e-07, "MEAN_MOTION_DDOT": 0}, "tle": {"line1": "1 57166U 23091A   25345.63755558  .00000033  00000+0  33105-4 0  9994", "line2": "2 57166  98.6379  39.1961 0003968  11.9921 348.1352 14.24025930127823"}}, "geometry": {"type": "Point", "coordinates": [-136.9388946426282, 21.035749679003704]}}, {"type": "Feature", "properties": {"norad_id": 57399, "name": "TIANMU-1 07", "group": "weather", "lat": 50.336565738948934, "lon": -135.09828024181127, "alt_km": 474.37892288268813, "timestamp": "2025-12-12T03:50:52.059606+00:00", "meta": {"OBJECT_NAME": "TIANMU-1 07", "OBJECT_ID": "2023-101A", "EPOCH": "2025-12-11T14:42:44.858880", "MEAN_MOTION": 15.28050126, "ECCENTRICITY": 0.00056155, "INCLINATION": 97.2879, "RA_OF_ASC_NODE": 35.4873, "ARG_OF_PERICENTER": 84.6356, "MEAN_ANOMALY": 275.5524, "EPHEMERIS_TYPE": 0, "CLASSIFICATION_TYPE": "U", "NORAD_CAT_ID": 57399, "ELEMENT_SET_NO": 999, "REV_AT_EPOCH": 13298, "BSTAR": 0.00053189652, "MEAN_MOTION_DOT": 0.00014498, "MEAN_MOTION_DDOT": 0}, "tle": {"line1": "1 57399U 23101A   25345.61301920  .00014498  00000+0  53190-3 0  9997", "line2": "2 57399  97.2879  35.4873 0005615  84.6356 275.5524 15.28050126132989"}}, "geometry": {"type": "Point", "coordinates": [-135.09828024181127, 50.336565738948934]}}, {"type": "Feature", "properties": {"norad_id": 57400, "name": "TIANMU-1 08", "group": "weather", "lat": -48.86132333463765, "lon": 44.24379896162358, "alt_km": 492.1662398940971, "timestamp": "2025-12-12T03:50:52.059617+00:00", "meta": {"OBJECT_NAME": "TIANMU-1 08", "OBJECT_ID": "2023-101B", "EPOCH": "2025-12-11T13:55:07.870080", "MEAN_MOTION": 15.28032929, "ECCENTRICITY": 0.00075159, "INCLINATION": 97.2867, "RA_OF_ASC_NODE": 35.2533, "ARG_OF_PERICENTER": 87.0625, "MEAN_ANOMALY": 273.1475, "EPHEMERIS_TYPE": 0, "CLASSIFICATION_TYPE": "U", "NORAD_CAT_ID": 57400, "ELEMENT_SET_NO": 999, "REV_AT_EPOCH": 13297, "BSTAR": 0.00053565408, "MEAN_MOTION_DOT": 0.00014599, "MEAN_MOTION_DDOT": 0}, "tle": {"line1": "1 57400U 23101B   25345.57995220  .00014599  00000+0  53565-3 0  9995", "line2": "2 57400  97.2867  35.2533 0007515  87.0625 273.1475 15.28032929132976"}}, "geometry": {"type": "Point", "coordinates": [44.24379896162358, -48.86132333463765]}}]}